ONEWEB-0249             
1 48967U 21060A   25107.92509562  .00000135  00000+0  31917-3 0  9998
2 48967  87.9027 313.5553 0001697  86.8077 273.3248 13.16596140183651
ONEWEB-0250             
1 48968U 21060B   25107.58785258  .00000120  00000+0  24410-3 0  9993
2 48968  87.9029 312.7706 0000649  87.7464 272.3747 13.25709748185117
ONEWEB-0252             
1 48970U 21060D   25107.95677631  .00000062  00000+0  12770-3 0  9993
2 48970  87.9033 313.5415 0002057  82.3666 277.7698 13.16595174183704
ONEWEB-0253             
1 48971U 21060E   25107.94568831  .00000058  00000+0  11754-3 0  9990
2 48971  87.9029 313.5494 0001600  80.5697 279.5615 13.16595090183632
ONEWEB-0254             
1 48972U 21060F   25107.95518467 -.00000021  00000+0 -88969-4 0  9997
2 48972  87.9031 313.5305 0001287  80.3576 279.7700 13.16595888183634
ONEWEB-0255             
1 48973U 21060G   25107.61320454  .00000002  00000+0 -29431-4 0  9995
2 48973  87.9030 313.6322 0001512  83.6487 276.4816 13.16595135183662
ONEWEB-0256             
1 48974U 21060H   25107.94331173  .00000067  00000+0  14117-3 0  9996
2 48974  87.9035 313.5792 0001926  86.8411 273.2940 13.16591955183679
ONEWEB-0257             
1 48975U 21060J   25107.59578627 -.00000015  00000+0 -74054-4 0  9997
2 48975  87.9032 313.6109 0001699  80.8644 279.2679 13.16595740184873
